{
    "links": {
        "self": "http://www.neowsapp.com/rest/v1/neo/3951326?api_key=iIulBulltgU6a56xZRHN4H3l9WmuAYTsLGpBGhQ2"
    },
    "id": "3951326",
    "neo_reference_id": "3951326",
    "name": "(2019 YG3)",
    "designation": "2019 YG3",
    "nasa_jpl_url": "http://ssd.jpl.nasa.gov/sbdb.cgi?sstr=3951326",
    "absolute_magnitude_h": 22.3,
    "estimated_diameter": {
        "kilometers": {
            "estimated_diameter_min": 0.0921626549,
            "estimated_diameter_max": 0.2060819612
        },
        "meters": {
            "estimated_diameter_min": 92.1626548503,
            "estimated_diameter_max": 206.0819612321
        },
        "miles": {
            "estimated_diameter_min": 0.057267201,
            "estimated_diameter_max": 0.1280533543
        },
        "feet": {
            "estimated_diameter_min": 302.370924539,
            "estimated_diameter_max": 676.1219416887
        }
    },
    "is_potentially_hazardous_asteroid": false,
    "close_approach_data": [
        {
            "close_approach_date": "2016-03-13",
            "close_approach_date_full": "2016-Mar-13 15:20",
            "epoch_date_close_approach": 1457882400000,
            "relative_velocity": {
                "kilometers_per_second": "10.4466675927",
                "kilometers_per_hour": "37608.0033338244",
                "miles_per_hour": "23368.1507381755"
            },
            "miss_distance": {
                "astronomical": "0.0736153818",
                "lunar": "28.6363835202",
                "kilometers": "11012704.316516766",
                "miles": "6842977.1492167308"
            },
            "orbiting_body": "Mars"
        },
        {
            "close_approach_date": "2018-03-10",
            "close_approach_date_full": "2018-Mar-10 17:16",
            "epoch_date_close_approach": 1520702160000,
            "relative_velocity": {
                "kilometers_per_second": "5.4230610922",
                "kilometers_per_hour": "19523.0199318449",
                "miles_per_hour": "12130.8453570955"
            },
            "miss_distance": {
                "astronomical": "0.4585390096",
                "lunar": "178.3716747344",
                "kilometers": "68596459.148069552",
                "miles": "42623863.2198097376"
            },
            "orbiting_body": "Earth"
        },
        {
            "close_approach_date": "2019-11-29",
            "close_approach_date_full": "2019-Nov-29 12:41",
            "epoch_date_close_approach": 1575031260000,
            "relative_velocity": {
                "kilometers_per_second": "3.556833473",
                "kilometers_per_hour": "12804.6005028852",
                "miles_per_hour": "7956.2807958066"
            },
            "miss_distance": {
                "astronomical": "0.3070047561",
                "lunar": "119.4248501229",
                "kilometers": "45927257.592429507",
                "miles": "28537874.5491089166"
            },
            "orbiting_body": "Earth"
        }
    ],
    "orbital_data": {
        "orbit_id": "4",
        "orbit_determination_date": "2020-02-01 05:47:01",
        "first_observation_date": "2019-12-24",
        "last_observation_date": "2020-01-14",
        "data_arc_in_days": 21,
        "observations_used": 21,
        "orbit_uncertainty": "8",
        "minimum_orbit_intersection": ".255868",
        "jupiter_tisserand_invariant": "4.215",
        "epoch_osculation": "2458843.5",
        "eccentricity": ".2858349405103529",
        "semi_major_axis": "1.652931772672724",
        "inclination": "8.838230275573817",
        "ascending_node_longitude": "201.028780766298",
        "orbital_period": "776.2128328741361",
        "perihelion_distance": "1.180466117763144",
        "perihelion_argument": "262.5091183264449",
        "aphelion_distance": "2.125397427582304",
        "perihelion_time": "2458867.208008879558",
        "mean_anomaly": "349.0044549185844",
        "mean_motion": ".4637903223874868",
        "equinox": "J2000",
        "orbit_class": {
            "orbit_class_type": "AMO",
            "orbit_class_description": "Near-Earth asteroid orbits similar to that of 1221 Amor",
            "orbit_class_range": "1.017 AU < q (perihelion) < 1.3 AU"
        }
    },
    "is_sentry_object": false
}